TRANSPORTER-15CZ        
1 66761U 25276CZ  25360.89908284  .00012886  00000+0  62620-3 0  9995
2 66761  97.4390  72.4509 0001740 121.7432 238.3972 15.18566216  4277
HYDROGNSS-1             
1 66762U 25276DA  25360.91806363  .00004156  00000+0  21169-3 0  9998
2 66762  97.4401  72.4294 0001120 226.4334 133.6807 15.17332077  4277
HYDROGNSS-2             
1 66763U 25276DB  25360.05846035  .00003675  00000+0  18697-3 0  9991
2 66763  97.4407  71.5946 0001649 220.2496 139.8616 15.17451017  4143
TRANSPORTER-15DC        
1 66764U 25276DC  25360.91063167  .00007095  00000+0  35496-3 0  9990
2 66764  97.4398  72.4374 0002455 180.4921 179.6311 15.17719730  4271
TRANSPORTER-15DD        
1 66765U 25276DD  25360.89503756  .00016291  00000+0  78426-3 0  9999
2 66765  97.4414  72.4645 0001966 114.3884 245.7556 15.18839254  4273
TRANSPORTER-15DE        
1 66766U 25276DE  25360.89869650  .00009228  00000+0  45087-3 0  9997
2 66766  97.4355  72.4389 0001899  84.8076 275.3374 15.18465461  4274
TRANSPORTER-15DF        
1 66767U 25276DF  25360.89975879  .00005167  00000+0  25471-3 0  9992
2 66767  97.4364  72.4403 0002052  85.9636 274.1833 15.18366797  4277
TRANSPORTER-15DG        
1 66768U 25276DG  25360.89710347  .00010469  00000+0  50921-3 0  9999
2 66768  97.4349  72.4393 0002060  72.0821 288.0637 15.18586596  4278
TRANSPORTER-15DH        
1 66769U 25276DH  25360.89832035  .00007258  00000+0  35549-3 0  9990
2 66769  97.4410  72.4587 0002722 100.6728 259.4813 15.18454427  4277
TRANSPORTER-15DJ        
1 66770U 25276DJ  25360.89806022  .00006590  00000+0  32346-3 0  9999
2 66770  97.4442  72.4705 0003318 115.3088 244.8490 15.18414296  4279
TRANSPORTER-15DK        
1 66771U 25276DK  25360.89739427  .00008476  00000+0  41376-3 0  9992
2 66771  97.4436  72.4688 0003031 107.6756 252.4810 15.18517844  4275
TRANSPORTER-15DL        
1 66772U 25276DL  25360.89447862  .00013678  00000+0  66079-3 0  9999
2 66772  97.4427  72.4689 0002906  92.7009 267.4558 15.18753914  4277
