CCSDS_OMM_VERS = 2.0
CREATION_DATE  = 
ORIGINATOR     = 

OBJECT_NAME    = TRANSPORTER-15CZ
OBJECT_ID      = 2025-276CZ
CENTER_NAME    = EARTH
REF_FRAME      = TEME
TIME_SYSTEM    = UTC
MEAN_ELEMENT_THEORY = SGP/SGP4

EPOCH          = 2025-12-26T21:34:40.757376
MEAN_MOTION    = 15.18566216
ECCENTRICITY   = .000174
INCLINATION    = 97.4390
RA_OF_ASC_NODE = 72.4509
ARG_OF_PERICENTER = 121.7432
MEAN_ANOMALY   = 238.3972

EPHEMERIS_TYPE = 0
CLASSIFICATION_TYPE = U
NORAD_CAT_ID   = 66761
ELEMENT_SET_NO = 999
REV_AT_EPOCH   = 427
BSTAR          = .62620028E-3
MEAN_MOTION_DOT = .12886E-3
MEAN_MOTION_DDOT = 0

CCSDS_OMM_VERS = 2.0
CREATION_DATE  = 
ORIGINATOR     = 

OBJECT_NAME    = HYDROGNSS-1
OBJECT_ID      = 2025-276DA
CENTER_NAME    = EARTH
REF_FRAME      = TEME
TIME_SYSTEM    = UTC
MEAN_ELEMENT_THEORY = SGP/SGP4

EPOCH          = 2025-12-26T22:02:00.697632
MEAN_MOTION    = 15.17332077
ECCENTRICITY   = .00011208
INCLINATION    = 97.4401
RA_OF_ASC_NODE = 72.4294
ARG_OF_PERICENTER = 226.4334
MEAN_ANOMALY   = 133.6807

EPHEMERIS_TYPE = 0
CLASSIFICATION_TYPE = U
NORAD_CAT_ID   = 66762
ELEMENT_SET_NO = 999
REV_AT_EPOCH   = 427
BSTAR          = .21169479E-3
MEAN_MOTION_DOT = .4156E-4
MEAN_MOTION_DDOT = 0

CCSDS_OMM_VERS = 2.0
CREATION_DATE  = 
ORIGINATOR     = 

OBJECT_NAME    = HYDROGNSS-2
OBJECT_ID      = 2025-276DB
CENTER_NAME    = EARTH
REF_FRAME      = TEME
TIME_SYSTEM    = UTC
MEAN_ELEMENT_THEORY = SGP/SGP4

EPOCH          = 2025-12-26T01:24:10.974240
MEAN_MOTION    = 15.17451017
ECCENTRICITY   = .00016493
INCLINATION    = 97.4407
RA_OF_ASC_NODE = 71.5946
ARG_OF_PERICENTER = 220.2496
MEAN_ANOMALY   = 139.8616

EPHEMERIS_TYPE = 0
CLASSIFICATION_TYPE = U
NORAD_CAT_ID   = 66763
ELEMENT_SET_NO = 999
REV_AT_EPOCH   = 414
BSTAR          = .18696789E-3
MEAN_MOTION_DOT = .3675E-4
MEAN_MOTION_DDOT = 0

CCSDS_OMM_VERS = 2.0
CREATION_DATE  = 
ORIGINATOR     = 

OBJECT_NAME    = TRANSPORTER-15DC
OBJECT_ID      = 2025-276DC
CENTER_NAME    = EARTH
REF_FRAME      = TEME
TIME_SYSTEM    = UTC
MEAN_ELEMENT_THEORY = SGP/SGP4

EPOCH          = 2025-12-26T21:51:18.576288
MEAN_MOTION    = 15.17719730
ECCENTRICITY   = .0002455
INCLINATION    = 97.4398
RA_OF_ASC_NODE = 72.4374
ARG_OF_PERICENTER = 180.4921
MEAN_ANOMALY   = 179.6311

EPHEMERIS_TYPE = 0
CLASSIFICATION_TYPE = U
NORAD_CAT_ID   = 66764
ELEMENT_SET_NO = 999
REV_AT_EPOCH   = 427
BSTAR          = .35495791E-3
MEAN_MOTION_DOT = .7095E-4
MEAN_MOTION_DDOT = 0

CCSDS_OMM_VERS = 2.0
CREATION_DATE  = 
ORIGINATOR     = 

OBJECT_NAME    = TRANSPORTER-15DD
OBJECT_ID      = 2025-276DD
CENTER_NAME    = EARTH
REF_FRAME      = TEME
TIME_SYSTEM    = UTC
MEAN_ELEMENT_THEORY = SGP/SGP4

EPOCH          = 2025-12-26T21:28:51.245184
MEAN_MOTION    = 15.18839254
ECCENTRICITY   = .0001966
INCLINATION    = 97.4414
RA_OF_ASC_NODE = 72.4645
ARG_OF_PERICENTER = 114.3884
MEAN_ANOMALY   = 245.7556

EPHEMERIS_TYPE = 0
CLASSIFICATION_TYPE = U
NORAD_CAT_ID   = 66765
ELEMENT_SET_NO = 999
REV_AT_EPOCH   = 427
BSTAR          = .78425503E-3
MEAN_MOTION_DOT = .16291E-3
MEAN_MOTION_DDOT = 0

CCSDS_OMM_VERS = 2.0
CREATION_DATE  = 
ORIGINATOR     = 

OBJECT_NAME    = TRANSPORTER-15DE
OBJECT_ID      = 2025-276DE
CENTER_NAME    = EARTH
REF_FRAME      = TEME
TIME_SYSTEM    = UTC
MEAN_ELEMENT_THEORY = SGP/SGP4

EPOCH          = 2025-12-26T21:34:07.377600
MEAN_MOTION    = 15.18465461
ECCENTRICITY   = .00018993
INCLINATION    = 97.4355
RA_OF_ASC_NODE = 72.4389
ARG_OF_PERICENTER = 84.8076
MEAN_ANOMALY   = 275.3374

EPHEMERIS_TYPE = 0
CLASSIFICATION_TYPE = U
NORAD_CAT_ID   = 66766
ELEMENT_SET_NO = 999
REV_AT_EPOCH   = 427
BSTAR          = .45086508E-3
MEAN_MOTION_DOT = .9228E-4
MEAN_MOTION_DDOT = 0

CCSDS_OMM_VERS = 2.0
CREATION_DATE  = 
ORIGINATOR     = 

OBJECT_NAME    = TRANSPORTER-15DF
OBJECT_ID      = 2025-276DF
CENTER_NAME    = EARTH
REF_FRAME      = TEME
TIME_SYSTEM    = UTC
MEAN_ELEMENT_THEORY = SGP/SGP4

EPOCH          = 2025-12-26T21:35:39.159456
MEAN_MOTION    = 15.18366797
ECCENTRICITY   = .00020528
INCLINATION    = 97.4364
RA_OF_ASC_NODE = 72.4403
ARG_OF_PERICENTER = 85.9636
MEAN_ANOMALY   = 274.1833

EPHEMERIS_TYPE = 0
CLASSIFICATION_TYPE = U
NORAD_CAT_ID   = 66767
ELEMENT_SET_NO = 999
REV_AT_EPOCH   = 427
BSTAR          = .25471E-3
MEAN_MOTION_DOT = .5167E-4
MEAN_MOTION_DDOT = 0

CCSDS_OMM_VERS = 2.0
CREATION_DATE  = 
ORIGINATOR     = 

OBJECT_NAME    = TRANSPORTER-15DG
OBJECT_ID      = 2025-276DG
CENTER_NAME    = EARTH
REF_FRAME      = TEME
TIME_SYSTEM    = UTC
MEAN_ELEMENT_THEORY = SGP/SGP4

EPOCH          = 2025-12-26T21:31:49.739808
MEAN_MOTION    = 15.18586596
ECCENTRICITY   = .00020608
INCLINATION    = 97.4349
RA_OF_ASC_NODE = 72.4393
ARG_OF_PERICENTER = 72.0821
MEAN_ANOMALY   = 288.0637

EPHEMERIS_TYPE = 0
CLASSIFICATION_TYPE = U
NORAD_CAT_ID   = 66768
ELEMENT_SET_NO = 999
REV_AT_EPOCH   = 427
BSTAR          = .50920879E-3
MEAN_MOTION_DOT = .10469E-3
MEAN_MOTION_DDOT = 0

CCSDS_OMM_VERS = 2.0
CREATION_DATE  = 
ORIGINATOR     = 

OBJECT_NAME    = TRANSPORTER-15DH
OBJECT_ID      = 2025-276DH
CENTER_NAME    = EARTH
REF_FRAME      = TEME
TIME_SYSTEM    = UTC
MEAN_ELEMENT_THEORY = SGP/SGP4

EPOCH          = 2025-12-26T21:33:34.878240
MEAN_MOTION    = 15.18454427
ECCENTRICITY   = .00027225
INCLINATION    = 97.4410
RA_OF_ASC_NODE = 72.4587
ARG_OF_PERICENTER = 100.6728
MEAN_ANOMALY   = 259.4813

EPHEMERIS_TYPE = 0
CLASSIFICATION_TYPE = U
NORAD_CAT_ID   = 66769
ELEMENT_SET_NO = 999
REV_AT_EPOCH   = 427
BSTAR          = .35549383E-3
MEAN_MOTION_DOT = .7258E-4
MEAN_MOTION_DDOT = 0

CCSDS_OMM_VERS = 2.0
CREATION_DATE  = 
ORIGINATOR     = 

OBJECT_NAME    = TRANSPORTER-15DJ
OBJECT_ID      = 2025-276DJ
CENTER_NAME    = EARTH
REF_FRAME      = TEME
TIME_SYSTEM    = UTC
MEAN_ELEMENT_THEORY = SGP/SGP4

EPOCH          = 2025-12-26T21:33:12.403008
MEAN_MOTION    = 15.18414296
ECCENTRICITY   = .00033188
INCLINATION    = 97.4442
RA_OF_ASC_NODE = 72.4705
ARG_OF_PERICENTER = 115.3088
MEAN_ANOMALY   = 244.8490

EPHEMERIS_TYPE = 0
CLASSIFICATION_TYPE = U
NORAD_CAT_ID   = 66770
ELEMENT_SET_NO = 999
REV_AT_EPOCH   = 427
BSTAR          = .32345872E-3
MEAN_MOTION_DOT = .659E-4
MEAN_MOTION_DDOT = 0

CCSDS_OMM_VERS = 2.0
CREATION_DATE  = 
ORIGINATOR     = 

OBJECT_NAME    = TRANSPORTER-15DK
OBJECT_ID      = 2025-276DK
CENTER_NAME    = EARTH
REF_FRAME      = TEME
TIME_SYSTEM    = UTC
MEAN_ELEMENT_THEORY = SGP/SGP4

EPOCH          = 2025-12-26T21:32:14.864928
MEAN_MOTION    = 15.18517844
ECCENTRICITY   = .00030317
INCLINATION    = 97.4436
RA_OF_ASC_NODE = 72.4688
ARG_OF_PERICENTER = 107.6756
MEAN_ANOMALY   = 252.4810

EPHEMERIS_TYPE = 0
CLASSIFICATION_TYPE = U
NORAD_CAT_ID   = 66771
ELEMENT_SET_NO = 999
REV_AT_EPOCH   = 427
BSTAR          = .41376137E-3
MEAN_MOTION_DOT = .8476E-4
MEAN_MOTION_DDOT = 0

CCSDS_OMM_VERS = 2.0
CREATION_DATE  = 
ORIGINATOR     = 

OBJECT_NAME    = TRANSPORTER-15DL
OBJECT_ID      = 2025-276DL
CENTER_NAME    = EARTH
REF_FRAME      = TEME
TIME_SYSTEM    = UTC
MEAN_ELEMENT_THEORY = SGP/SGP4

EPOCH          = 2025-12-26T21:28:02.952768
MEAN_MOTION    = 15.18753914
ECCENTRICITY   = .00029065
INCLINATION    = 97.4427
RA_OF_ASC_NODE = 72.4689
ARG_OF_PERICENTER = 92.7009
MEAN_ANOMALY   = 267.4558

EPHEMERIS_TYPE = 0
CLASSIFICATION_TYPE = U
NORAD_CAT_ID   = 66772
ELEMENT_SET_NO = 999
REV_AT_EPOCH   = 427
BSTAR          = .66079237E-3
MEAN_MOTION_DOT = .13678E-3
MEAN_MOTION_DDOT = 0

